NORAD_CAT_ID,OBJECT_NAME,OBJECT_TYPE,EPOCH,MEAN_MOTION,ECCENTRICITY,INCLINATION,RA_OF_ASC_NODE,ARG_OF_PERICENTER,MEAN_ANOMALY,BSTAR,MEAN_MOTION_DOT,MEAN_MOTION_DDOT,TLE_LINE0,TLE_LINE1,TLE_LINE2,SEMIMAJOR_AXIS,PERIOD,APOGEE,PERIGEE,DECAYED
51858.0,STARLINK-3563,PAYLOAD,2022-10-31 11:06:31,15.08839147,0.0001754,53.2158,119.3813,71.5234,288.5948,9.1776e-06,-1.42e-06,0.0,0 STARLINK-3563,1 51858U 22022G   22304.46286892 -.00000142  00000-0  91776-5 0  9994,2 51858  53.2158 119.3813 0001754  71.5234 288.5948 15.08839147 38054,6917.8830000000025,95.438,540.961,538.535,0.0
51858.0,STARLINK-3563,PAYLOAD,2022-10-31 14:17:18,15.08831977,0.0001717,53.2161,118.7858,69.0404,291.0772,-0.00010237,-1.917e-05,0.0,0 STARLINK-3563,1 51858U 22022G   22304.59535301 -.00001917  00000-0 -10237-3 0  9993,2 51858  53.2161 118.7858 0001717  69.0404 291.0772 15.08831977 38079,6917.905,95.438,540.9580000000002,538.582,0.0
51858.0,STARLINK-3563,PAYLOAD,2022-10-31 20:38:51,15.08827292,0.000176,53.2167,117.5961,69.6758,290.4423,0.00018054,2.585e-05,0.0,0 STARLINK-3563,1 51858U 22022G   22304.86031854  .00002585  00000-0  18054-3 0  9992,2 51858  53.2167 117.5961 0001760  69.6758 290.4423 15.08827292 38119,6917.919,95.438,541.002,538.567,0.0
51858.0,STARLINK-3563,PAYLOAD,2022-11-01 10:57:18,15.08842721,0.0001603,53.217,114.9197,68.3175,291.7988,0.00012842,1.757e-05,0.0,0 STARLINK-3563,1 51858U 22022G   22305.45646969  .00001757  00000-0  12842-3 0  9996,2 51858  53.2170 114.9197 0001603  68.3175 291.7988 15.08842721 38204,6917.871999999999,95.437,540.846,538.628,0.0
51858.0,STARLINK-3563,PAYLOAD,2022-11-01 12:32:42,15.08843279,0.0001604,53.217,114.6223,68.4955,291.6208,0.00013327,1.834e-05,0.0,0 STARLINK-3563,1 51858U 22022G   22305.52270941  .00001834  00000-0  13327-3 0  9992,2 51858  53.2170 114.6223 0001604  68.4955 291.6208 15.08843279 38213,6917.87,95.437,540.845,538.626,0.0
51858.0,STARLINK-3563,PAYLOAD,2022-11-01 14:08:05,15.08844915,0.0001548,53.2172,114.325,67.1313,292.9842,0.00014048,1.949e-05,0.0,0 STARLINK-3563,1 51858U 22022G   22305.58894824  .00001949  00000-0  14048-3 0  9998,2 51858  53.2172 114.3250 0001548  67.1313 292.9842 15.08844915 38220,6917.865,95.437,540.8009999999998,538.659,0.0
51858.0,STARLINK-3563,PAYLOAD,2022-11-02 06:01:57,15.08836383,0.0001646,53.2172,111.3514,68.3331,291.7836,5.7078e-07,-2.79e-06,0.0,0 STARLINK-3563,1 51858U 22022G   22306.25135784 -.00000279  00000-0  57078-6 0  9995,2 51858  53.2172 111.3514 0001646  68.3331 291.7836 15.08836383 38323,6917.891,95.438,540.895,538.618,0.0
51858.0,STARLINK-3563,PAYLOAD,2022-11-02 20:20:25,15.08843161,0.0001629,53.2175,108.675,67.1515,292.9649,0.00016765,2.381e-05,0.0,0 STARLINK-3563,1 51858U 22022G   22306.84751213  .00002381  00000-0  16765-3 0  9991,2 51858  53.2175 108.6750 0001629  67.1515 292.9649 15.08843161 38416,6917.871,95.437,540.863,538.609,0.0
51858.0,STARLINK-3563,PAYLOAD,2022-11-03 12:14:16,15.08851263,0.0001676999999999,53.2171,105.7024,59.7524,300.3634,0.00021271,3.1e-05,0.0,0 STARLINK-3563,1 51858U 22022G   22307.50990808  .00003100  00000-0  21271-3 0  9998,2 51858  53.2171 105.7024 0001677  59.7524 300.3634 15.08851263 38515,6917.846,95.437,540.871,538.5509999999998,0.0
51858.0,STARLINK-3563,PAYLOAD,2022-11-04 04:08:07,15.08849579,0.0001651,53.2175,102.7279,59.4079,300.7076,0.00041645,6.348e-05,0.0,0 STARLINK-3563,1 51858U 22022G   22308.17230594  .00006348  00000-0  41645-3 0  9995,2 51858  53.2175 102.7279 0001651  59.4079 300.7076 15.08849579 38614,6917.851,95.437,540.8580000000002,538.5740000000002,0.0
51858.0,STARLINK-3563,PAYLOAD,2022-11-04 12:05:02,15.08844824,0.0001431999999999,53.2169,101.2394,77.0213,283.0939,7.1842e-05,8.56e-06,0.0,0 STARLINK-3563,1 51858U 22022G   22308.50350506  .00000856  00000-0  71842-4 0  9999,2 51858  53.2169 101.2394 0001432  77.0213 283.0939 15.08844824 38666,6917.866,95.437,540.721,538.74,0.0
51858.0,STARLINK-3563,PAYLOAD,2022-11-04 13:40:25,15.08844286,0.0001422,53.2179,100.9421,79.428,280.6872,7.379399999999999e-05,8.87e-06,0.0,0 STARLINK-3563,1 51858U 22022G   22308.56974486  .00000887  00000-0  73794-4 0  9996,2 51858  53.2179 100.9421 0001422  79.4280 280.6872 15.08844286 38675,6917.8669999999975,95.437,540.716,538.749,0.0
51858.0,STARLINK-3563,PAYLOAD,2022-11-05 10:20:27,15.08833382,0.0001591,53.218,97.0783,56.405,303.7093,-0.00012733,-2.314e-05,0.0,0 STARLINK-3563,1 51858U 22022G   22309.43087471 -.00002314  00000-0 -12733-3 0  9996,2 51858  53.2180  97.0783 0001591  56.4050 303.7093 15.08833382 38803,6917.901,95.438,540.866,538.665,0.0
51858.0,STARLINK-3563,PAYLOAD,2022-11-05 11:55:50,15.08833239,0.0001554,53.218,96.7808,68.4251,291.6907,-0.00014783,-2.64e-05,0.0,0 STARLINK-3563,1 51858U 22022G   22309.49711522 -.00002640  00000-0 -14783-3 0  9992,2 51858  53.2180  96.7808 0001554  68.4251 291.6907 15.08833239 38813,6917.901,95.438,540.841,538.691,0.0
51858.0,STARLINK-3563,PAYLOAD,2022-11-05 16:42:00,15.08831482,0.0001659,53.2181,95.8891,66.6828,293.4339,-0.00015194,-2.705e-05,0.0,0 STARLINK-3563,1 51858U 22022G   22309.69583801 -.00002705  00000-0 -15194-3 0  9990,2 51858  53.2181  95.8891 0001659  66.6828 293.4339 15.08831482 38842,6917.906,95.438,540.919,538.624,0.0
51858.0,STARLINK-3563,PAYLOAD,2022-11-06 11:46:38,15.08825846,0.0001558,53.2183,92.3208,63.213,296.9021,-4.7947e-05,-1.051e-05,0.0,0 STARLINK-3563,1 51858U 22022G   22310.49072361 -.00001051  00000-0 -47947-4 0  9999,2 51858  53.2183  92.3208 0001558  63.2130 296.9021 15.08825846 38961,6917.924,95.438,540.866,538.711,0.0
51858.0,STARLINK-3563,PAYLOAD,2022-11-07 02:05:06,15.0882527,0.0001599,53.2184,89.6447,61.5902,298.5251,0.00013191,1.811e-05,0.0,0 STARLINK-3563,1 51858U 22022G   22311.08688137  .00001811  00000-0  13191-3 0  9994,2 51858  53.2184  89.6447 0001599  61.5902 298.5251 15.08825270 39054,6917.925,95.438,540.8969999999998,538.684,0.0
51858.0,STARLINK-3563,PAYLOAD,2022-11-07 11:37:25,15.08834753,0.0001629,53.2185,87.8603,62.5269,297.5889,0.00020146,2.919e-05,0.0,0 STARLINK-3563,1 51858U 22022G   22311.48431743  .00002919  00000-0  20146-3 0  9995,2 51858  53.2185  87.8603 0001629  62.5269 297.5889 15.08834753 39119,6917.896,95.438,540.888,538.635,0.0
51858.0,STARLINK-3563,PAYLOAD,2022-11-07 16:23:34,15.08836233,0.0001634,53.2185,86.9684,62.3462,297.7696,0.00020541,2.982e-05,0.0,0 STARLINK-3563,1 51858U 22022G   22311.68303769  .00002982  00000-0  20541-3 0  9992,2 51858  53.2185  86.9684 0001634  62.3462 297.7696 15.08836233 39143,6917.892,95.438,540.887,538.627,0.0
51858.0,STARLINK-3563,PAYLOAD,2022-11-08 06:42:02,15.08847395,0.0001805,53.2188,84.2928,58.74100000000001,301.3759,0.00026151,3.877e-05,0.0,0 STARLINK-3563,1 51858U 22022G   22312.27919295  .00003877  00000-0  26151-3 0  9992,2 51858  53.2188  84.2928 0001805  58.7410 301.3759 15.08847395 39233,6917.858,95.437,540.971,538.474,0.0
51858.0,STARLINK-3563,PAYLOAD,2022-11-08 09:52:48,15.08842406,0.0001921,53.2191,83.6985,50.2303,309.8858,0.00022112,3.233e-05,0.0,0 STARLINK-3563,1 51858U 22022G   22312.41167822  .00003233  00000-0  22112-3 0  9998,2 51858  53.2191  83.6985 0001921  50.2303 309.8858 15.08842406 39253,6917.873000000001,95.437,541.067,538.409,0.0
51858.0,STARLINK-3563,PAYLOAD,2022-11-08 17:49:44,15.08852334,0.000187,53.2191,82.2104,47.8614,312.2537,0.0001898,2.735e-05,0.0,0 STARLINK-3563,1 51858U 22022G   22312.74287357  .00002735  00000-0  18980-3 0  9994,2 51858  53.2191  82.2104 0001870  47.8614 312.2537 15.08852334 39300,6917.843000000003,95.437,541.001,538.414,0.0
51858.0,STARLINK-3563,PAYLOAD,2022-11-09 14:29:46,15.08837408,0.0001518,53.219,78.3456,64.6112,295.5037,-5.7529e-05,-1.203e-05,0.0,0 STARLINK-3563,1 51858U 22022G   22313.60400521 -.00001203  00000-0 -57529-4 0  9994,2 51858  53.2190  78.3456 0001518  64.6112 295.5037 15.08837408 39431,6917.888000000001,95.438,540.803,538.703,0.0
51858.0,STARLINK-3563,PAYLOAD,2022-11-10 11:09:47,15.08834142,0.000167,53.2192,74.4805,58.5505,301.5651,-0.00015516,-2.756e-05,0.0,0 STARLINK-3563,1 51858U 22022G   22314.46513232 -.00002756  00000-0 -15516-3 0  9996,2 51858  53.2192  74.4805 0001670  58.5505 301.5651 15.08834142 39561,6917.898,95.438,540.919,538.6080000000002,0.0
51858.0,STARLINK-3563,PAYLOAD,2022-11-10 14:20:33,15.08835659,0.0001761,53.2192,73.88600000000002,50.9981,309.1168,-0.00013325,-2.408e-05,0.0,0 STARLINK-3563,1 51858U 22022G   22314.59761135 -.00002408  00000-0 -13325-3 0  9997,2 51858  53.2192  73.8860 0001761  50.9981 309.1168 15.08835659 39583,6917.894,95.438,540.977,538.54,0.0
51858.0,STARLINK-3563,PAYLOAD,2022-11-11 03:03:38,15.08833627,0.0001684,53.2195,71.5077,47.4101,312.7033,6.9835e-05,8.23e-06,0.0,0 STARLINK-3563,1 51858U 22022G   22315.12752913  .00000823  00000-0  69835-4 0  9996,2 51858  53.2195  71.5077 0001684  47.4101 312.7033 15.08833627 39663,6917.9,95.438,540.93,538.6,0.0
51858.0,STARLINK-3563,PAYLOAD,2022-11-11 12:35:56,15.08843187,0.0001743,53.2195,69.7235,46.1038,314.0098,0.00019755,2.858e-05,0.0,0 STARLINK-3563,1 51858U 22022G   22315.52496220  .00002858  00000-0  19755-3 0  9991,2 51858  53.2195  69.7235 0001743  46.1038 314.0098 15.08843187 39724,6917.871,95.437,540.941,538.53,0.0
51858.0,STARLINK-3563,PAYLOAD,2022-11-11 14:11:19,15.08845685,0.0001626,53.2192,69.4253,55.2896,304.825,0.00023101,3.391e-05,0.0,0 STARLINK-3563,1 51858U 22022G   22315.59120002  .00003391  00000-0  23101-3 0  9993,2 51858  53.2192  69.4253 0001626  55.2896 304.8250 15.08845685 39734,6917.863,95.437,540.8530000000002,538.6030000000002,0.0
51858.0,STARLINK-3563,PAYLOAD,2022-11-12 14:02:07,15.0885068,0.0001769,53.2186,64.9653,52.9378,307.1776,0.00016747,2.379e-05,0.0,0 STARLINK-3563,1 51858U 22022G   22316.58480353  .00002379  00000-0  16747-3 0  9994,2 51858  53.2186  64.9653 0001769  52.9378 307.1776 15.08850680 39884,6917.848000000001,95.437,540.937,538.489,0.0
